{
  "type": "FeatureCollection",
  "features": [
    {
      "type": "Feature",
      "properties": {
        "norad_id": 28054,
        "name": "DMSP 5D-3 F16 (USA 172)",
        "group": "weather",
        "lat": 20.96275886190923,
        "lon": -172.2697167793583,
        "alt_km": 848.5849097165155,
        "timestamp": "2025-12-12T18:57:43.774649+00:00",
        "meta_object_name": "DMSP 5D-3 F16 (USA 172)",
        "meta_object_id": "2003-048A",
        "meta_epoch": "2025-12-12T06:57:20.289024",
        "meta_mean_motion": 14.14423935,
        "meta_eccentricity": 0.00065159,
        "meta_inclination": 99.0047,
        "meta_ra_of_asc_node": 3.7432,
        "meta_arg_of_pericenter": 322.3206,
        "meta_mean_anomaly": 170.4275,
        "meta_ephemeris_type": 0,
        "meta_classification_type": "U",
        "meta_norad_cat_id": 28054,
        "meta_element_set_no": 999,
        "meta_rev_at_epoch": 14306,
        "meta_bstar": 0.00013413451,
        "meta_mean_motion_dot": 2.11e-06,
        "meta_mean_motion_ddot": 0,
        "tle_line1": "1 28054U 03048A   25346.28981816  .00000211  00000+0  13413-3 0  9995",
        "tle_line2": "2 28054  99.0047   3.7432 0006515 322.3206 170.4275 14.14423935143060"
      },
      "geometry": {
        "type": "Point",
        "coordinates": [
          -172.2697167793583,
          20.96275886190923
        ]
      }
    },
    {
      "type": "Feature",
      "properties": {
        "norad_id": 28912,
        "name": "METEOSAT-9 (MSG-2)",
        "group": "weather",
        "lat": -0.6272916384615552,
        "lon": 51.899002295749,
        "alt_km": 35799.829870450114,
        "timestamp": "2025-12-12T18:57:43.774698+00:00",
        "meta_object_name": "METEOSAT-9 (MSG-2)",
        "meta_object_id": "2005-049B",
        "meta_epoch": "2025-12-11T20:34:34.468032",
        "meta_mean_motion": 1.00276076,
        "meta_eccentricity": 0.0003644,
        "meta_inclination": 8.9379,
        "meta_ra_of_asc_node": 55.9858,
        "meta_arg_of_pericenter": 189.8677,
        "meta_mean_anomaly": 189.2654,
        "meta_ephemeris_type": 0,
        "meta_classification_type": "U",
        "meta_norad_cat_id": 28912,
        "meta_element_set_no": 999,
        "meta_rev_at_epoch": 512,
        "meta_bstar": 0,
        "meta_mean_motion_dot": 1.29e-06,
        "meta_mean_motion_ddot": 0,
        "tle_line1": "1 28912U 05049B   25345.85734338  .00000129  00000+0  00000+0 0  9990",
        "tle_line2": "2 28912   8.9379  55.9858 0003644 189.8677 189.2654  1.00276076  5125"
      },
      "geometry": {
        "type": "Point",
        "coordinates": [
          51.899002295749,
          -0.6272916384615552
        ]
      }
    },
    {
      "type": "Feature",
      "properties": {
        "norad_id": 29522,
        "name": "DMSP 5D-3 F17 (USA 191)",
        "group": "weather",
        "lat": 77.42211351766665,
        "lon": -144.23816096016245,
        "alt_km": 839.248162085938,
        "timestamp": "2025-12-12T18:57:43.774716+00:00",
        "meta_object_name": "DMSP 5D-3 F17 (USA 191)",
        "meta_object_id": "2006-050A",
        "meta_epoch": "2025-12-12T06:36:53.324352",
        "meta_mean_motion": 14.14919236,
        "meta_eccentricity": 0.00093898,
        "meta_inclination": 98.7394,
        "meta_ra_of_asc_node": 351.6744,
        "meta_arg_of_pericenter": 226.2831,
        "meta_mean_anomaly": 133.7566,
        "meta_ephemeris_type": 0,
        "meta_classification_type": "U",
        "meta_norad_cat_id": 29522,
        "meta_element_set_no": 999,
        "meta_rev_at_epoch": 98598,
        "meta_bstar": 0.00016900826,
        "meta_mean_motion_dot": 2.83e-06,
        "meta_mean_motion_ddot": 0,
        "tle_line1": "1 29522U 06050A   25346.27561718  .00000283  00000+0  16901-3 0  9990",
        "tle_line2": "2 29522  98.7394 351.6744 0009389 226.2831 133.7566 14.14919236985985"
      },
      "geometry": {
        "type": "Point",
        "coordinates": [
          -144.23816096016245,
          77.42211351766665
        ]
      }
    },
    {
      "type": "Feature",
      "properties": {
        "norad_id": 32958,
        "name": "FENGYUN 3A",
        "group": "weather",
        "lat": 5.883568247058308,
        "lon": 107.21668492358525,
        "alt_km": 833.2444842086024,
        "timestamp": "2025-12-12T18:57:43.774730+00:00",
        "meta_object_name": "FENGYUN 3A",
        "meta_object_id": "2008-026A",
        "meta_epoch": "2025-12-12T06:18:11.041920",
        "meta_mean_motion": 14.19514501,
        "meta_eccentricity": 0.00079271,
        "meta_inclination": 98.6698,
        "meta_ra_of_asc_node": 285.7995,
        "meta_arg_of_pericenter": 311.8417,
        "meta_mean_anomaly": 48.2082,
        "meta_ephemeris_type": 0,
        "meta_classification_type": "U",
        "meta_norad_cat_id": 32958,
        "meta_element_set_no": 999,
        "meta_rev_at_epoch": 90888,
        "meta_bstar": 0.00012108847,
        "meta_mean_motion_dot": 2.12e-06,
        "meta_mean_motion_ddot": 0,
        "tle_line1": "1 32958U 08026A   25346.26262780  .00000212  00000+0  12109-3 0  9996",
        "tle_line2": "2 32958  98.6698 285.7995 0007927 311.8417  48.2082 14.19514501908888"
      },
      "geometry": {
        "type": "Point",
        "coordinates": [
          107.21668492358525,
          5.883568247058308
        ]
      }
    },
    {
      "type": "Feature",
      "properties": {
        "norad_id": 35491,
        "name": "GOES 14",
        "group": "weather",
        "lat": 0.16958680237128473,
        "lon": -103.62341781232212,
        "alt_km": 35832.0604761233,
        "timestamp": "2025-12-12T18:57:43.774745+00:00",
        "meta_object_name": "GOES 14",
        "meta_object_id": "2009-033A",
        "meta_epoch": "2025-12-12T06:06:38.503584",
        "meta_mean_motion": 1.00095998,
        "meta_eccentricity": 8.007e-05,
        "meta_inclination": 1.2016,
        "meta_ra_of_asc_node": 85.4016,
        "meta_arg_of_pericenter": 161.6598,
        "meta_mean_anomaly": 176.3554,
        "meta_ephemeris_type": 0,
        "meta_classification_type": "U",
        "meta_norad_cat_id": 35491,
        "meta_element_set_no": 999,
        "meta_rev_at_epoch": 471,
        "meta_bstar": 0,
        "meta_mean_motion_dot": -2.4e-07,
        "meta_mean_motion_ddot": 0,
        "tle_line1": "1 35491U 09033A   25346.25461231 -.00000024  00000+0  00000+0 0  9996",
        "tle_line2": "2 35491   1.2016  85.4016 0000800 161.6598 176.3554  1.00095998  4716"
      },
      "geometry": {
        "type": "Point",
        "coordinates": [
          -103.62341781232212,
          0.16958680237128473
        ]
      }
    },
    {
      "type": "Feature",
      "properties": {
        "norad_id": 35951,
        "name": "DMSP 5D-3 F18 (USA 210)",
        "group": "weather",
        "lat": -33.26414703400147,
        "lon": -30.920836417667413,
        "alt_km": 850.1053053385922,
        "timestamp": "2025-12-12T18:57:43.774758+00:00",
        "meta_object_name": "DMSP 5D-3 F18 (USA 210)",
        "meta_object_id": "2009-057A",
        "meta_epoch": "2025-12-12T05:32:32.869536",
        "meta_mean_motion": 14.14768679,
        "meta_eccentricity": 0.00120612,
        "meta_inclination": 98.8835,
        "meta_ra_of_asc_node": 322.6342,
        "meta_arg_of_pericenter": 64.0826,
        "meta_mean_anomaly": 296.1589,
        "meta_ephemeris_type": 0,
        "meta_classification_type": "U",
        "meta_norad_cat_id": 35951,
        "meta_element_set_no": 999,
        "meta_rev_at_epoch": 83315,
        "meta_bstar": 0.00022742193,
        "meta_mean_motion_dot": 3.94e-06,
        "meta_mean_motion_ddot": 0,
        "tle_line1": "1 35951U 09057A   25346.23093599  .00000394  00000+0  22742-3 0  9999",
        "tle_line2": "2 35951  98.8835 322.6342 0012061  64.0826 296.1589 14.14768679833157"
      },
      "geometry": {
        "type": "Point",
        "coordinates": [
          -30.920836417667413,
          -33.26414703400147
        ]
      }
    },
    {
      "type": "Feature",
      "properties": {
        "norad_id": 36411,
        "name": "EWS-G2 (GOES 15)",
        "group": "weather",
        "lat": -0.23872557596795757,
        "lon": 67.58218510082095,
        "alt_km": 35810.45294625677,
        "timestamp": "2025-12-12T18:57:43.774771+00:00",
        "meta_object_name": "EWS-G2 (GOES 15)",
        "meta_object_id": "2010-008A",
        "meta_epoch": "2025-12-12T05:12:43.668576",
        "meta_mean_motion": 1.00269708,
        "meta_eccentricity": 0.00057715,
        "meta_inclination": 0.813,
        "meta_ra_of_asc_node": 86.0572,
        "meta_arg_of_pericenter": 174.6352,
        "meta_mean_anomaly": 320.0676,
        "meta_ephemeris_type": 0,
        "meta_classification_type": "U",
        "meta_norad_cat_id": 36411,
        "meta_element_set_no": 999,
        "meta_rev_at_epoch": 5776,
        "meta_bstar": 0,
        "meta_mean_motion_dot": 4.8e-07,
        "meta_mean_motion_ddot": 0,
        "tle_line1": "1 36411U 10008A   25346.21717209  .00000048  00000+0  00000+0 0  9993",
        "tle_line2": "2 36411   0.8130  86.0572 0005771 174.6352 320.0676  1.00269708 57767"
      },
      "geometry": {
        "type": "Point",
        "coordinates": [
          67.58218510082095,
          -0.23872557596795757
        ]
      }
    }
  ]
}